     2.10           N: GPS NAV DATA                         RINEX VERSION / TYPE
teqc  2013Mar15     gpsops              20140520 00:23:20UTCPGM / RUN BY / DATE
Linux 2.4.21-27.ELsmp|Opteron|gcc -static|Linux x86_64|=+   COMMENT
GLPS                                    MARKER NAME         COMMENT
42005M002                               MARKER NUMBER       COMMENT
-33801.4662 -6377516.5323 -82154.3508                       COMMENT
                                                            COMMENT
This data is provided as a public service by NASA/JPL.      COMMENT
No warranty is expressed or implied regarding suitability   COMMENT
for use.  For further information, contact:                 COMMENT
Dave Stowers, NASA/JPL m/s 238-600                          COMMENT
4800 Oak Grove Drive, Pasadena CA 91109 USA                 COMMENT
                                                            END OF HEADER
25 14  5 19  8  0  0.0 2.402113750577D-05 5.684341886081D-13 0.000000000000D+00
    5.700000000000D+01-2.093750000000D+01 4.240533778110D-09 3.137097691499D+00
   -1.100823283195D-06 3.605675883591D-03 2.685934305191D-06 5.153611240387D+03
    1.152000000000D+05-1.117587089539D-08 2.612076804946D+00 9.313225746155D-09
    9.763200762900D-01 3.364062500000D+02 6.757612689007D-01-8.246772082588D-09
    8.750364487804D-11 0.000000000000D+00 1.793000000000D+03 0.000000000000D+00
    2.000000000000D+00 0.000000000000D+00 5.122274160385D-09 5.700000000000D+01
    1.080000000000D+05 4.000000000000D+00
26 14  5 19  8  0  0.0 7.413886487484D-05-1.193711796077D-11 0.000000000000D+00
    2.600000000000D+01 4.128125000000D+01 4.239819462642D-09-4.017357256312D-01
    2.287328243256D-06 2.136789564975D-02 1.068972051144D-05 5.153695867538D+03
    1.152000000000D+05-1.601874828339D-07 6.178685929355D-01 1.583248376846D-07
    9.753322628008D-01 1.832812500000D+02 1.282676403158D+00-8.217842306118D-09
   -4.907347267854D-10 0.000000000000D+00 1.793000000000D+03 0.000000000000D+00
    2.000000000000D+00 0.000000000000D+00-6.053596735001D-09 2.600000000000D+01
    1.080000000000D+05 4.000000000000D+00
29 14  5 19  8  0  0.0 5.335612222552D-04 2.614797267597D-12 0.000000000000D+00
    4.700000000000D+01-1.127500000000D+02 4.094813422558D-09-2.691044875632D+00
   -5.736947059631D-06 1.581190386787D-03 9.223818778992D-06 5.153713571548D+03
    1.152000000000D+05 4.842877388000D-08-2.569626721484D+00 2.235174179077D-08
    9.694959511235D-01 2.032812500000D+02-8.814042192122D-01-7.895328872139D-09
    6.893144269984D-11 0.000000000000D+00 1.793000000000D+03 0.000000000000D+00
    2.000000000000D+00 0.000000000000D+00-9.778887033463D-09 4.700000000000D+01
    1.085400000000D+05 4.000000000000D+00
22 14  5 19  8  0  0.0 2.352874726057D-04 2.728484105319D-12 0.000000000000D+00
    9.200000000000D+01 9.906250000000D+00 5.888102405957D-09 1.867103096956D+00
    4.265457391739D-07 7.210158044472D-03 6.001442670822D-06 5.153720396042D+03
    1.152000000000D+05-1.471489667892D-07-5.338895275104D-01-1.583248376846D-07
    9.236999648169D-01 2.464062500000D+02-2.059387854090D+00-8.658574950116D-09
   -7.250302004181D-11 0.000000000000D+00 1.793000000000D+03 0.000000000000D+00
    2.800000000000D+00 0.000000000000D+00-1.722946763039D-08 9.200000000000D+01
    1.131900000000D+05 4.000000000000D+00
 2 14  5 19 10  0  0.0 4.961839877069D-04 2.160049916711D-12 0.000000000000D+00
    8.700000000000D+01 1.296875000000D+01 5.169501044754D-09 3.630059013614D-01
    6.277114152908D-07 1.354707835708D-02 1.004338264465D-05 5.153605953217D+03
    1.224000000000D+05-8.754432201385D-08-1.598718894956D+00 3.036111593246D-07
    9.390418105406D-01 1.786250000000D+02-2.425682733228D+00-8.405707274305D-09
    4.875203071777D-10 0.000000000000D+00 1.793000000000D+03 0.000000000000D+00
    2.000000000000D+00 0.000000000000D+00-2.048909664154D-08 8.700000000000D+01
    1.152000000000D+05 4.000000000000D+00
12 14  5 19 10  0  0.0 2.059102989733D-04 2.501110429876D-12 0.000000000000D+00
    5.400000000000D+01-3.803125000000D+01 4.064812172886D-09-1.326576579296D+00
   -1.927837729454D-06 5.133964819834D-03 2.723187208176D-06 5.153622751236D+03
    1.224000000000D+05 5.587935447693D-08 2.654345084264D+00-1.490116119385D-07
    9.876335386269D-01 3.419375000000D+02 4.319805782279D-01-8.143553497405D-09
   -6.535986535788D-11 0.000000000000D+00 1.793000000000D+03 0.000000000000D+00
    2.000000000000D+00 0.000000000000D+00-1.210719347000D-08 5.400000000000D+01
    1.152000000000D+05 4.000000000000D+00
15 14  5 19 10  0  0.0-1.803440973163D-04-2.160049916711D-12 0.000000000000D+00
    7.400000000000D+01 2.015625000000D+01 5.171643991159D-09 1.192183681819D+00
    1.315027475357D-06 6.269252393395D-03 9.771436452866D-06 5.153692865372D+03
    1.224000000000D+05 1.098960638046D-07 4.830228725729D-01 6.519258022308D-08
    9.371387750201D-01 1.763125000000D+02 2.731326073323D-01-8.344633301757D-09
   -6.121683564121D-10 0.000000000000D+00 1.793000000000D+03 0.000000000000D+00
    2.000000000000D+00 0.000000000000D+00-1.024454832077D-08 7.400000000000D+01
    1.152000000000D+05 4.000000000000D+00
18 14  5 19 10  0  0.0 3.201751969755D-04 2.387423592154D-12 0.000000000000D+00
    1.180000000000D+02 3.187500000000D+00 5.794169921863D-09-2.808403357501D+00
    6.705522537231D-08 1.526536024176D-02 5.824491381645D-06 5.153687032700D+03
    1.224000000000D+05 2.812594175339D-07-5.358526816493D-01-1.788139343262D-07
    9.259233647676D-01 2.455625000000D+02-2.039333672742D+00-8.456423672561D-09
    2.142946405177D-12 0.000000000000D+00 1.793000000000D+03 0.000000000000D+00
    2.000000000000D+00 0.000000000000D+00-1.117587089539D-08 1.180000000000D+02
    1.152000000000D+05 4.000000000000D+00
22 14  5 19 10  0  0.0 2.353070303798D-04 2.728484105319D-12 0.000000000000D+00
    9.300000000000D+01 7.375000000000D+00 5.859172629487D-09 2.917332405919D+00
    3.036111593246D-07 7.210627663881D-03 6.128102540970D-06 5.153719131470D+03
    1.224000000000D+05 1.490116119385D-08-5.339512231545D-01-1.415610313416D-07
    9.236998945968D-01 2.423750000000D+02-2.059454740168D+00-8.550356156654D-09
   -7.071723137082D-11 0.000000000000D+00 1.793000000000D+03 0.000000000000D+00
    4.000000000000D+00 0.000000000000D+00-1.722946763039D-08 9.300000000000D+01
    1.152000000000D+05 4.000000000000D+00
24 14  5 19 10  0  0.0-2.860510721803D-05-5.684341886081D-13 0.000000000000D+00
    8.400000000000D+01 1.089375000000D+02 4.521974072657D-09-7.001378318938D-02
    5.478039383888D-06 2.085399930365D-03 7.083639502525D-06 5.153739088058D+03
    1.224000000000D+05 4.842877388000D-08 1.556648485549D+00 2.607703208923D-08
    9.566607423827D-01 2.381875000000D+02 3.483504392455D-01-8.260344076487D-09
    2.500104139373D-11 0.000000000000D+00 1.793000000000D+03 0.000000000000D+00
    2.000000000000D+00 0.000000000000D+00 2.793967723846D-09 8.400000000000D+01
    1.152000000000D+05 4.000000000000D+00
25 14  5 19 10  0  0.0 2.402532845736D-05 5.684341886081D-13 0.000000000000D+00
    5.800000000000D+01-2.725000000000D+01 4.276249551530D-09-2.096000721792D+00
   -1.341104507446D-06 3.606667509302D-03 2.473592758179D-06 5.153609189987D+03
    1.224000000000D+05-1.043081283569D-07 2.612017972233D+00-7.636845111847D-08
    9.763205297946D-01 3.413437500000D+02 6.758920991275D-01-8.216413675181D-09
    1.428630936784D-12 0.000000000000D+00 1.793000000000D+03 0.000000000000D+00
    2.000000000000D+00 0.000000000000D+00 5.122274160385D-09 5.800000000000D+01
    1.152000000000D+05 4.000000000000D+00
26 14  5 19 10  0  0.0 7.405271753669D-05-1.193711796077D-11 0.000000000000D+00
    2.700000000000D+01 3.434375000000D+01 4.316608375494D-09 6.484254947360D-01
    1.963227987289D-06 2.136653137859D-02 1.050345599651D-05 5.153693252563D+03
    1.224000000000D+05-2.328306436539D-07 6.178098567747D-01 6.146728992462D-08
    9.753284606767D-01 1.907187500000D+02 1.282681754512D+00-8.196412842066D-09
   -5.675236396376D-10 0.000000000000D+00 1.793000000000D+03 0.000000000000D+00
    2.000000000000D+00 0.000000000000D+00-6.053596735001D-09 2.700000000000D+01
    1.152000000000D+05 4.000000000000D+00
29 14  5 19 10  0  0.0 5.335803143680D-04 2.614797267597D-12 0.000000000000D+00
    4.800000000000D+01-1.143750000000D+02 4.098027842166D-09-1.641599314789D+00
   -5.826354026794D-06 1.581969903782D-03 9.898096323013D-06 5.153711011887D+03
    1.224000000000D+05 2.980232238770D-08-2.569683612906D+00 5.029141902924D-08
    9.694963768327D-01 1.934687500000D+02-8.806955085487D-01-7.906043604165D-09
    6.214544575012D-11 0.000000000000D+00 1.793000000000D+03 0.000000000000D+00
    2.000000000000D+00 0.000000000000D+00-9.778887033463D-09 4.800000000000D+01
    1.152000000000D+05 4.000000000000D+00
21 14  5 19 10  0  0.0-3.619655035436D-04-2.160049916711D-12 0.000000000000D+00
    8.000000000000D+01 5.968750000000D+00 5.098069497915D-09-1.842440916762D+00
    3.110617399216D-07 2.149985847063D-02 9.268522262573D-06 5.153756399155D+03
    1.224000000000D+05 3.930181264877D-07-1.581325460233D+00 7.450580596924D-09
    9.319769153908D-01 1.743125000000D+02-2.025692223515D+00-7.988189883030D-09
    7.250302004181D-10 0.000000000000D+00 1.793000000000D+03 0.000000000000D+00
    2.000000000000D+00 0.000000000000D+00-1.117587089539D-08 8.000000000000D+01
    1.158900000000D+05 4.000000000000D+00
14 14  5 19 10  0  0.0 1.715272665024D-04-3.410605131648D-12 0.000000000000D+00
    5.700000000000D+01 2.681250000000D+01 4.244462513186D-09 1.801824089091D+00
    1.221895217896D-06 7.492779288441D-03 1.078844070435D-05 5.153663021088D+03
    1.224000000000D+05-1.210719347000D-07 5.947289198638D-01-2.067536115646D-07
    9.705157747233D-01 1.779062500000D+02-2.000005163877D+00-7.838897950136D-09
   -5.178787145843D-10 0.000000000000D+00 1.793000000000D+03 0.000000000000D+00
    2.000000000000D+00 0.000000000000D+00-9.313225746155D-09 5.700000000000D+01
    1.162200000000D+05 4.000000000000D+00
